{
    "links": {
        "self": "http://www.neowsapp.com/rest/v1/neo/3714181?api_key=iIulBulltgU6a56xZRHN4H3l9WmuAYTsLGpBGhQ2"
    },
    "id": "3714181",
    "neo_reference_id": "3714181",
    "name": "(2015 FA117)",
    "designation": "2015 FA117",
    "nasa_jpl_url": "http://ssd.jpl.nasa.gov/sbdb.cgi?sstr=3714181",
    "absolute_magnitude_h": 23.6,
    "estimated_diameter": {
        "kilometers": {
            "estimated_diameter_min": 0.0506471459,
            "estimated_diameter_max": 0.1132504611
        },
        "meters": {
            "estimated_diameter_min": 50.6471458835,
            "estimated_diameter_max": 113.2504610618
        },
        "miles": {
            "estimated_diameter_min": 0.0314706677,
            "estimated_diameter_max": 0.0703705522
        },
        "feet": {
            "estimated_diameter_min": 166.1651821003,
            "estimated_diameter_max": 371.5566426699
        }
    },
    "is_potentially_hazardous_asteroid": false,
    "close_approach_data": [
        {
            "close_approach_date": "2015-03-25",
            "close_approach_date_full": "2015-Mar-25 18:36",
            "epoch_date_close_approach": 1427308560000,
            "relative_velocity": {
                "kilometers_per_second": "15.9999610724",
                "kilometers_per_hour": "57599.8598606504",
                "miles_per_hour": "35790.312922858"
            },
            "miss_distance": {
                "astronomical": "0.1453730539",
                "lunar": "56.5501179671",
                "kilometers": "21747499.218835193",
                "miles": "13513269.3959559434"
            },
            "orbiting_body": "Earth"
        }
    ],
    "orbital_data": {
        "orbit_id": "6",
        "orbit_determination_date": "2017-04-06 08:34:49",
        "first_observation_date": "2015-03-24",
        "last_observation_date": "2015-03-29",
        "data_arc_in_days": 5,
        "observations_used": 14,
        "orbit_uncertainty": "9",
        "minimum_orbit_intersection": ".143231",
        "jupiter_tisserand_invariant": "4.025",
        "epoch_osculation": "2457106.5",
        "eccentricity": ".3579739764942874",
        "semi_major_axis": "1.682904542563476",
        "inclination": "28.54225947123858",
        "ascending_node_longitude": "178.9272279821753",
        "orbital_period": "797.4209675612919",
        "perihelion_distance": "1.080468511401729",
        "perihelion_argument": "39.61205942967633",
        "aphelion_distance": "2.285340573725224",
        "perihelion_time": "2457142.374620750190",
        "mean_anomaly": "343.8042088238973",
        "mean_motion": ".4514553976439419",
        "equinox": "J2000",
        "orbit_class": {
            "orbit_class_type": "AMO",
            "orbit_class_description": "Near-Earth asteroid orbits similar to that of 1221 Amor",
            "orbit_class_range": "1.017 AU < q (perihelion) < 1.3 AU"
        }
    },
    "is_sentry_object": false
}